LIME                    
1 62648U 25009AR  26068.73906781  .00013254  00000+0  47723-3 0  9995
2 62648  97.3985 151.4831 0001635  35.9029 324.2320 15.28703313 63766
STARLINK-33800          
1 63576U 25076H   26068.10792929  .00034183  00000+0  12457-2 0  9997
2 63576  43.0056 324.7907 0002050 266.4437  93.6180 15.27585302 51740
